[{"OBJECT_NAME":"YAOGAN-31 02C","OBJECT_ID":"2021-007E","EPOCH":"2026-03-09T23:15:50.360832","MEAN_MOTION":13.45441,"ECCENTRICITY":0.01674626,"INCLINATION":63.4047,"RA_OF_ASC_NODE":37.1202,"ARG_OF_PERICENTER":0.2529,"MEAN_ANOMALY":359.8553,"EPHEMERIS_TYPE":0,"CLASSIFICATION_TYPE":"U","NORAD_CAT_ID":47536,"ELEMENT_SET_NO":999,"REV_AT_EPOCH":25086,"BSTAR":0.00019769935,"MEAN_MOTION_DOT":3.7e-7,"MEAN_MOTION_DDOT":0},{"OBJECT_NAME":"FENGYUN 1C DEB","OBJECT_ID":"1999-025AZY","EPOCH":"2026-03-09T01:47:04.516512","MEAN_MOTION":13.47059808,"ECCENTRICITY":0.03381924,"INCLINATION":98.7624,"RA_OF_ASC_NODE":299.5178,"ARG_OF_PERICENTER":221.8462,"MEAN_ANOMALY":135.6367,"EPHEMERIS_TYPE":0,"CLASSIFICATION_TYPE":"U","NORAD_CAT_ID":30934,"ELEMENT_SET_NO":999,"REV_AT_EPOCH":92870,"BSTAR":0.0017663556,"MEAN_MOTION_DOT":1.483e-5,"MEAN_MOTION_DDOT":0}]
